[{"OBJECT_NAME":"KUIPER-00204","OBJECT_ID":"2025-301N","EPOCH":"2026-03-09T09:32:32.981280","MEAN_MOTION":15.260884,"ECCENTRICITY":0.00030716,"INCLINATION":51.887,"RA_OF_ASC_NODE":71.6415,"ARG_OF_PERICENTER":354.8934,"MEAN_ANOMALY":5.2016,"EPHEMERIS_TYPE":0,"CLASSIFICATION_TYPE":"U","NORAD_CAT_ID":67145,"ELEMENT_SET_NO":999,"REV_AT_EPOCH":1373,"BSTAR":0.00079568218,"MEAN_MOTION_DOT":0.00020516,"MEAN_MOTION_DDOT":0},{"OBJECT_NAME":"STARLINK-35716","OBJECT_ID":"2025-303AE","EPOCH":"2026-03-09T21:47:40.242624","MEAN_MOTION":15.2758627,"ECCENTRICITY":0.0001579,"INCLINATION":43.0005,"RA_OF_ASC_NODE":309.9063,"ARG_OF_PERICENTER":312.0083,"MEAN_ANOMALY":48.0634,"EPHEMERIS_TYPE":0,"CLASSIFICATION_TYPE":"U","NORAD_CAT_ID":67191,"ELEMENT_SET_NO":999,"REV_AT_EPOCH":1276,"BSTAR":-0.0010705575,"MEAN_MOTION_DOT":-0.0002961,"MEAN_MOTION_DDOT":0}]
